From:	Horizons Ephemeris System <horizons@ssd.jpl.nasa.gov>
Sent:	Wednesday, March 4, 2020 10:01 AM
Subject:	[Horizons] MAJOR BODY #C(usr={0.,45.,.600^G}@301)_T(301) (1/1)

 Automated mail xmit by MAIL_REQUEST, PID= 10263 Wed Mar  4 08:00:44 2020
++++++++++++++++++++++++++++++++ (part 1 of 1)  +++++++++++++++++++++++++++++++
*******************************************************************************
 Revised: July 31, 2013             Moon / (Earth)                          301
 
 GEOPHYSICAL DATA (updated 2018-Aug-15):
  Vol. mean radius, km  = 1737.53+-0.03    Mass, x10^22 kg       =    7.349
  Radius (gravity), km  = 1738.0           Surface emissivity    =    0.92
  Radius (IAU), km      = 1737.4           GM, km^3/s^2          = 4902.800066
  Density, g/cm^3       =    3.3437        GM 1-sigma, km^3/s^2  =  +-0.0001  
  V(1,0)                =   +0.21          Surface accel., m/s^2 =    1.62
  Earth/Moon mass ratio = 81.3005690769    Farside crust. thick. = ~80 - 90 km
  Mean crustal density  = 2.97+-.07 g/cm^3 Nearside crust. thick.= 58+-8 km 
  Heat flow, Apollo 15  = 3.1+-.6 mW/m^2   Mean angular diameter = 31'05.2"
  Heat flow, Apollo 17  = 2.2+-.5 mW/m^2   Sid. rot. rate, rad/s = 0.0000026617
  Geometric Albedo      = 0.12             Mean solar day        = 29.5306 d
  Obliquity to orbit    = 6.67 deg         Orbit period          = 27.321582 d
  Semi-major axis, a    = 384400 km        Eccentricity          = 0.05490
  Mean motion, rad/s    = 2.6616995x10^-6  Inclination           = 5.145 deg
  Apsidal period        = 3231.50 d        Nodal period          = 6798.38 d
                                 Perihelion  Aphelion    Mean
  Solar Constant (W/m^2)         1414+-7     1323+-7     1368+-7
  Maximum Planetary IR (W/m^2)   1314        1226        1268
  Minimum Planetary IR (W/m^2)      5.2         5.2         5.2
 *******************************************************************************
 
 
*******************************************************************************
Ephemeris / MAIL_REQUEST Wed Mar  4 08:00:43 2020 Pasadena, USA  / Horizons    
*******************************************************************************
Target body name: Moon (301)                      {source: DE431mx}
Center body name: Moon (301)                      {source: DE431mx}
Center-site name: (user defined site below)
*******************************************************************************
Start time      : A.D. 2020-Jan-01 00:00:00.0000 TDB
Stop  time      : A.D. 2039-Jan-01 00:00:00.0000 TDB
Step-size       : 10000 steps
*******************************************************************************
Center geodetic : 0.00000000,45.0000000,0.6000000 {E-lon(deg),Lat(deg),Alt(km)}
Center cylindric: 0.00000000,1228.95159,1228.9516 {E-lon(deg),Dxy(km),Dz(km)}
Center pole/equ : IAU_MOON                        {East-longitude positive}
Center radii    : 1737.4 x 1737.4 x 1737.4 km     {Equator, meridian, pole}    
Output units    : KM-S                                                         
Output type     : GEOMETRIC cartesian states
Output format   : 3 (position, velocity, LT, range, range-rate)
Reference frame : ICRF/J2000.0                                                 
Coordinate systm: Ecliptic and Mean Equinox of Reference Epoch                 
*******************************************************************************
JDTDB
   X     Y     Z
   VX    VY    VZ
   LT    RG    RR
*******************************************************************************
$$SOE
2463622.138000002 = A.D. 2033-Jan-24 15:18:43.2002 TDB 
  -7.874512419526151E+02 -9.256069816097190E+02 -1.242504027012641E+03
   2.543633330595263E-03 -2.057415949618130E-03 -7.937894450508033E-05
   5.797343974543883E-03  1.738000000000000E+03  0.000000000000000E+00
2463622.832000002 = A.D. 2033-Jan-25 07:58:04.8002 TDB 
  -6.257496838618895E+02 -1.036304742669951E+03 -1.247058063390198E+03
   2.838414487631623E-03 -1.627036836129360E-03 -7.219469659670245E-05
   5.797343974543884E-03  1.738000000000000E+03 -3.832760729430919E-19
2463623.526000002 = A.D. 2033-Jan-26 00:37:26.4002 TDB 
  -4.485029050940604E+02 -1.119899827268250E+03 -1.251124902240672E+03
   3.061040221968838E-03 -1.155335323475062E-03 -6.316364003676391E-05
   5.797343974543884E-03  1.738000000000000E+03  2.076078728441748E-19
2463624.220000002 = A.D. 2033-Jan-26 17:16:48.0002 TDB 
  -2.602162920426244E+02 -1.174269528992712E+03 -1.254600555808430E+03
   3.205864892731104E-03 -6.543036700627134E-04 -5.251823969654713E-05
   5.797343974543883E-03  1.738000000000000E+03  1.357436091673451E-19
2463624.914000002 = A.D. 2033-Jan-27 09:56:09.6002 TDB 
  -6.567505198958617E+01 -1.198034018855919E+03 -1.257396229201480E+03
   3.269220387197536E-03 -1.366754414032811E-04 -4.053168712276085E-05
   5.797343974543883E-03  1.738000000000000E+03 -1.596983637262884E-20
2463625.608000002 = A.D. 2033-Jan-28 02:35:31.2002 TDB 
   1.301773741967589E+02 -1.190591170773008E+03 -1.259440556487124E+03
   3.249507973876454E-03  3.843979031072694E-04 -2.751089271664269E-05
   5.797343974543884E-03  1.738000000000000E+03 -4.790950911788650E-20
2463626.302000002 = A.D. 2033-Jan-28 19:14:52.8002 TDB 
   3.223648427515727E+02 -1.152131647270917E+03 -1.260681393340347E+03
   3.147237724464949E-03  8.956806220888066E-04 -1.378873083927770E-05
   5.797343974543883E-03  1.738000000000000E+03  1.397360682605023E-19
2463626.996000002 = A.D. 2033-Jan-29 11:54:14.4002 TDB 
   5.060048045422620E+02 -1.083633885192022E+03 -1.261087126507836E+03
   2.965014635200360E-03  1.384188102671847E-03  2.842939294999064E-07
   5.797343974543883E-03  1.738000000000000E+03  3.290659643188168E-20
2463627.690000002 = A.D. 2033-Jan-30 04:33:36.0002 TDB 
   6.764321803609505E+02 -9.868391260829258E+02 -1.260647470391313E+03
   2.707471896113684E-03  1.837515661748528E-03  1.434879185134509E-05
   5.797343974543884E-03  1.738000000000000E+03  2.654985296949544E-19
2463628.384000002 = A.D. 2033-Jan-30 21:12:57.6002 TDB 
   8.293176907930401E+02 -8.642071353669321E+02 -1.259373731232545E+03
   2.381153052707348E-03  2.244152520815687E-03  2.804547123663259E-05
   5.797343974543884E-03  1.738000000000000E+03 -3.473439411046771E-19
2463629.078000002 = A.D. 2033-Jan-31 13:52:19.2002 TDB 
   9.607776598113436E+02 -7.188537365823298E+02 -1.257298530106935E+03
   1.994346052202299E-03  2.593773119623140E-03  4.102417426403047E-05
   5.797343974543883E-03  1.738000000000000E+03  1.916380364715460E-19
2463629.772000002 = A.D. 2033-Feb-01 06:31:40.8002 TDB 
   1.067472526282310E+03 -5.544717407159770E+02 -1.254474987546527E+03
   1.556873340716212E-03  2.877498498209129E-03  5.295276316047361E-05
   5.797343974543884E-03  1.738000000000000E+03 -3.593213183841487E-19
2463630.466000002 = A.D. 2033-Feb-01 23:11:02.4002 TDB 
   1.146691580214332E+03 -3.752372654127952E+02 -1.250975385253877E+03
   1.079843254516015E-03  3.088121211513781E-03  6.352563781017125E-05
   5.797343974543882E-03  1.738000000000000E+03  1.038039364220874E-19
2463631.160000002 = A.D. 2033-Feb-02 15:50:24.0002 TDB 
   1.196421784305758E+03 -1.857038047560985E+02 -1.246889333877604E+03
   5.753689044079997E-04  3.220288131117958E-03  7.247165440524002E-05
   5.797343974543882E-03  1.738000000000000E+03 -3.193967274525767E-20
2463631.854000002 = A.D. 2033-Feb-03 08:29:45.6002 TDB 
   1.215398938175446E+03  9.313281332217400E+00 -1.242321489741212E+03
   5.626156542345001E-05  3.270636516862404E-03  7.956121318749947E-05
   5.797343974543882E-03  1.738000000000000E+03  1.038039364220874E-19
2463632.548000002 = A.D. 2033-Feb-04 01:09:07.2002 TDB 
   1.203139883472602E+03  2.048589459906130E+02 -1.237388877049228E+03
  -4.642937665732530E-04  3.237879886257173E-03  8.461229486765912E-05
   5.797343974543882E-03  1.738000000000000E+03  3.593213183841488E-19
2463633.242000002 = A.D. 2033-Feb-04 17:48:28.8002 TDB 
   1.159954922438987E+03  3.959642190462894E+02 -1.232217884606707E+03
  -9.730725216703981E-04  3.122841446902245E-03  8.749525118339541E-05
   5.797343974543883E-03  1.738000000000000E+03  8.783410004945857E-20
2463633.936000002 = A.D. 2033-Feb-05 10:27:50.4002 TDB 
   1.086940119135530E+03  5.777723765607282E+02 -1.226941016633240E+03
  -1.457146004249828E-03  2.928434158881579E-03  8.813619453214641E-05
   5.797343974543883E-03  1.738000000000000E+03  3.193967274525766E-20
2463634.630000002 = A.D. 2033-Feb-06 03:07:12.0002 TDB 
   9.859496593484814E+02  7.456623215252951E+02 -1.221693485080493E+03
  -1.904209675306051E-03  2.659587829667783E-03  8.651888216253568E-05
   5.797343974543884E-03  1.738000000000000E+03 -3.273816456388911E-19
2463635.324000002 = A.D. 2033-Feb-06 19:46:33.6002 TDB 
   8.595489496220894E+02  8.953660451831911E+02 -1.216609735427337E+03
  -2.302895946892854E-03  2.323124980877012E-03  8.268504798547669E-05
   5.797343974543882E-03  1.738000000000000E+03  1.437285273536595E-19
2463636.018000002 = A.D. 2033-Feb-07 12:25:55.2002 TDB 
   7.109496251757782E+02  1.023077182130910E+03 -1.211819998954258E+03
  -2.643063524591982E-03  1.927588530164632E-03  7.673319445503199E-05
   5.797343974543883E-03  1.738000000000000E+03 -3.273816456388911E-19
2463636.712000002 = A.D. 2033-Feb-08 05:05:16.8002 TDB 
   5.439280980992501E+02  1.125547892323790E+03 -1.207446962058213E+03
  -2.916055897591156E-03  1.483025568233168E-03  6.881591230942002E-05
   5.797343974543884E-03  1.738000000000000E+03  3.513364001978343E-19
2463637.406000002 = A.D. 2033-Feb-08 21:44:38.4002 TDB 
   3.627296991975309E+02  1.200171594357597E+03 -1.203602637674582E+03
  -3.114922333935895E-03  1.000732646789040E-03  5.913584166596526E-05
   5.797343974543883E-03  1.738000000000000E+03  7.984918186314419E-21
